[
    {
        "Altitude(m)": 604221.1923152738,
        "Argument of Periapsis(deg)": 0.0,
        "Eccentricity": 0.0,
        "Inclination(deg)": 60.0,
        "Latitude(deg)": 14.117177353953855,
        "Longitude(deg)": -96.66584511545231,
        "Mean Anomaly(deg)": -343.63640000000004,
        "RAAN(deg)": 355.0,
        "Satellite Name": "Test1 1563",
        "Satellite Number": 1563,
        "Semi-Major Axis(m)": 6980739.136638005,
        "Time(s)": 0
    },
    {
        "Altitude(m)": 604235.3328089196,
        "Argument of Periapsis(deg)": 0.00010418945913296404,
        "Eccentricity": 0.0,
        "Inclination(deg)": 60.0,
        "Latitude(deg)": 14.651574100458614,
        "Longitude(deg)": -96.37739821752562,
        "Mean Anomaly(deg)": -343.01629385453816,
        "RAAN(deg)": 354.99957995086027,
        "Satellite Name": "Test1 1563",
        "Satellite Number": 1563,
        "Semi-Major Axis(m)": 6980739.136638005,
        "Time(s)": 10
    }
]